{
  "bbox": [89.35, 21.62, 89.5, 21.76],
  "geometry": {
    "coordinates": [
      [
        [89.35, 21.62],
        [89.5, 21.62],
        [89.5, 21.76],
        [89.35, 21.76],
        [89.35, 21.62]
      ]
    ],
    "type": "Polygon"
  },
  "id": "aoi_bd_sundarbans_west",
  "properties": {
    "climate_tags": ["monsoon", "persistent-tropical-cloud"],
    "locality": "Sundarbans, Bangladesh",
    "name": "Sundarbans western delta",
    "slug": "sundarbans-delta",
    "story": "Tidal channels, mangrove edges, and storm impacts make evidence timing operationally meaningful."
  },
  "type": "Feature"
}
